{
  "type": "FeatureCollection",
  "features": [
    {
      "type": "Feature",
      "properties": {
        "norad_id": 41330,
        "name": "COSMOS 2514 (751)",
        "group": "gnss",
        "lat": 1.397644834603498,
        "lon": -39.85589472839837,
        "alt_km": 19154.60356214888,
        "timestamp": "2025-12-09T16:56:36.817960+00:00",
        "meta_object_name": "COSMOS 2514 (751)",
        "meta_object_id": "2016-008A",
        "meta_epoch": "2025-12-09T05:37:58.795392",
        "meta_mean_motion": 2.13102549,
        "meta_eccentricity": 0.0012235,
        "meta_inclination": 65.1358,
        "meta_ra_of_asc_node": 319.5239,
        "meta_arg_of_pericenter": 220.0374,
        "meta_mean_anomaly": 139.8687,
        "meta_ephemeris_type": 0,
        "meta_classification_type": "U",
        "meta_norad_cat_id": 41330,
        "meta_element_set_no": 999,
        "meta_rev_at_epoch": 7657,
        "meta_bstar": 0,
        "meta_mean_motion_dot": -4.9e-07,
        "meta_mean_motion_ddot": 0,
        "tle_line1": "1 41330U 16008A   25343.23470828 -.00000049  00000+0  00000+0 0  9999",
        "tle_line2": "2 41330  65.1358 319.5239 0012235 220.0374 139.8687  2.13102549 76578"
      },
      "geometry": {
        "type": "Point",
        "coordinates": [
          -39.85589472839837,
          1.397644834603498
        ]
      }
    },
    {
      "type": "Feature",
      "properties": {
        "norad_id": 41384,
        "name": "IRNSS-1F",
        "group": "gnss",
        "lat": -4.842007621728862,
        "lon": 5.4466383170668395,
        "alt_km": 35776.82909857388,
        "timestamp": "2025-12-09T16:56:36.817971+00:00",
        "meta_object_name": "IRNSS-1F",
        "meta_object_id": "2016-015A",
        "meta_epoch": "2025-12-09T01:44:31.733664",
        "meta_mean_motion": 1.00270577,
        "meta_eccentricity": 0.00224915,
        "meta_inclination": 4.8714,
        "meta_ra_of_asc_node": 101.3906,
        "meta_arg_of_pericenter": 180.2244,
        "meta_mean_anomaly": 214.948,
        "meta_ephemeris_type": 0,
        "meta_classification_type": "U",
        "meta_norad_cat_id": 41384,
        "meta_element_set_no": 999,
        "meta_rev_at_epoch": 3576,
        "meta_bstar": 0,
        "meta_mean_motion_dot": 1.6e-06,
        "meta_mean_motion_ddot": 0,
        "tle_line1": "1 41384U 16015A   25343.07258951  .00000160  00000+0  00000+0 0  9992",
        "tle_line2": "2 41384   4.8714 101.3906 0022491 180.2244 214.9480  1.00270577 35763"
      },
      "geometry": {
        "type": "Point",
        "coordinates": [
          5.4466383170668395,
          -4.842007621728862
        ]
      }
    },
    {
      "type": "Feature",
      "properties": {
        "norad_id": 41434,
        "name": "BEIDOU-2 IGSO-6 (C13)",
        "group": "gnss",
        "lat": 22.218516801146958,
        "lon": 53.617790279322264,
        "alt_km": 36010.75441695196,
        "timestamp": "2025-12-09T16:56:36.817987+00:00",
        "meta_object_name": "BEIDOU-2 IGSO-6 (C13)",
        "meta_object_id": "2016-021A",
        "meta_epoch": "2025-12-03T15:53:57.382080",
        "meta_mean_motion": 1.00293531,
        "meta_eccentricity": 0.00596341,
        "meta_inclination": 59.9536,
        "meta_ra_of_asc_node": 39.991,
        "meta_arg_of_pericenter": 228.541,
        "meta_mean_anomaly": 135.1173,
        "meta_ephemeris_type": 0,
        "meta_classification_type": "U",
        "meta_norad_cat_id": 41434,
        "meta_element_set_no": 999,
        "meta_rev_at_epoch": 3552,
        "meta_bstar": 0,
        "meta_mean_motion_dot": -1.61e-06,
        "meta_mean_motion_ddot": 0,
        "tle_line1": "1 41434U 16021A   25337.66246970 -.00000161  00000+0  00000+0 0  9993",
        "tle_line2": "2 41434  59.9536  39.9910 0059634 228.5410 135.1173  1.00293531 35525"
      },
      "geometry": {
        "type": "Point",
        "coordinates": [
          53.617790279322264,
          22.218516801146958
        ]
      }
    },
    {
      "type": "Feature",
      "properties": {
        "norad_id": 41469,
        "name": "IRNSS-1G",
        "group": "gnss",
        "lat": 0.013158144425940939,
        "lon": 102.08634902771794,
        "alt_km": 35774.04098524013,
        "timestamp": "2025-12-09T16:56:36.818002+00:00",
        "meta_object_name": "IRNSS-1G",
        "meta_object_id": "2016-027A",
        "meta_epoch": "2025-12-09T09:21:51.708384",
        "meta_mean_motion": 1.00250976,
        "meta_eccentricity": 0.0004639,
        "meta_inclination": 4.7248,
        "meta_ra_of_asc_node": 102.1861,
        "meta_arg_of_pericenter": 335.7352,
        "meta_mean_anomaly": 270.1666,
        "meta_ephemeris_type": 0,
        "meta_classification_type": "U",
        "meta_norad_cat_id": 41469,
        "meta_element_set_no": 999,
        "meta_rev_at_epoch": 3527,
        "meta_bstar": 0,
        "meta_mean_motion_dot": -3.35e-06,
        "meta_mean_motion_ddot": 0,
        "tle_line1": "1 41469U 16027A   25343.39018181 -.00000335  00000+0  00000+0 0  9998",
        "tle_line2": "2 41469   4.7248 102.1861 0004639 335.7352 270.1666  1.00250976 35275"
      },
      "geometry": {
        "type": "Point",
        "coordinates": [
          102.08634902771794,
          0.013158144425940939
        ]
      }
    },
    {
      "type": "Feature",
      "properties": {
        "norad_id": 41549,
        "name": "GSAT0211 (GALILEO 14)",
        "group": "gnss",
        "lat": -39.533428683465914,
        "lon": 81.97944942341607,
        "alt_km": 23236.614251464394,
        "timestamp": "2025-12-09T16:56:36.818013+00:00",
        "meta_object_name": "GSAT0211 (GALILEO 14)",
        "meta_object_id": "2016-030A",
        "meta_epoch": "2025-12-07T13:40:58.264320",
        "meta_mean_motion": 1.70472997,
        "meta_eccentricity": 0.00040128,
        "meta_inclination": 55.154,
        "meta_ra_of_asc_node": 226.9659,
        "meta_arg_of_pericenter": 14.4678,
        "meta_mean_anomaly": 345.6377,
        "meta_ephemeris_type": 0,
        "meta_classification_type": "U",
        "meta_norad_cat_id": 41549,
        "meta_element_set_no": 999,
        "meta_rev_at_epoch": 5940,
        "meta_bstar": 0,
        "meta_mean_motion_dot": 2.3e-07,
        "meta_mean_motion_ddot": 0,
        "tle_line1": "1 41549U 16030A   25341.57011880  .00000023  00000+0  00000+0 0  9991",
        "tle_line2": "2 41549  55.1540 226.9659 0004012  14.4678 345.6377  1.70472997 59400"
      },
      "geometry": {
        "type": "Point",
        "coordinates": [
          81.97944942341607,
          -39.533428683465914
        ]
      }
    },
    {
      "type": "Feature",
      "properties": {
        "norad_id": 41550,
        "name": "GSAT0210 (GALILEO 13)",
        "group": "gnss",
        "lat": 51.65546055720846,
        "lon": -71.44333178029869,
        "alt_km": 23220.17343431514,
        "timestamp": "2025-12-09T16:56:36.818025+00:00",
        "meta_object_name": "GSAT0210 (GALILEO 13)",
        "meta_object_id": "2016-030B",
        "meta_epoch": "2025-12-09T00:00:58.854816",
        "meta_mean_motion": 1.70473614,
        "meta_eccentricity": 0.0001366,
        "meta_inclination": 55.1527,
        "meta_ra_of_asc_node": 226.9246,
        "meta_arg_of_pericenter": 244.5421,
        "meta_mean_anomaly": 115.531,
        "meta_ephemeris_type": 0,
        "meta_classification_type": "U",
        "meta_norad_cat_id": 41550,
        "meta_element_set_no": 999,
        "meta_rev_at_epoch": 5942,
        "meta_bstar": 0,
        "meta_mean_motion_dot": 1.3e-07,
        "meta_mean_motion_ddot": 0,
        "tle_line1": "1 41550U 16030B   25343.00068119  .00000013  00000+0  00000+0 0  9999",
        "tle_line2": "2 41550  55.1527 226.9246 0001366 244.5421 115.5310  1.70473614 59420"
      },
      "geometry": {
        "type": "Point",
        "coordinates": [
          -71.44333178029869,
          51.65546055720846
        ]
      }
    },
    {
      "type": "Feature",
      "properties": {
        "norad_id": 41586,
        "name": "BEIDOU-2 G7 (C03)",
        "group": "gnss",
        "lat": 0.4908457900384145,
        "lon": 83.31011523567336,
        "alt_km": 35769.10196692909,
        "timestamp": "2025-12-09T16:56:36.818037+00:00",
        "meta_object_name": "BEIDOU-2 G7 (C03)",
        "meta_object_id": "2016-037A",
        "meta_epoch": "2025-12-09T12:23:14.495136",
        "meta_mean_motion": 1.00268532,
        "meta_eccentricity": 0.0004352,
        "meta_inclination": 1.7491,
        "meta_ra_of_asc_node": 67.701,
        "meta_arg_of_pericenter": 1.3083,
        "meta_mean_anomaly": 305.7697,
        "meta_ephemeris_type": 0,
        "meta_classification_type": "U",
        "meta_norad_cat_id": 41586,
        "meta_element_set_no": 999,
        "meta_rev_at_epoch": 498,
        "meta_bstar": 0,
        "meta_mean_motion_dot": -3.51e-06,
        "meta_mean_motion_ddot": 0,
        "tle_line1": "1 41586U 16037A   25343.51613999 -.00000351  00000+0  00000+0 0  9999",
        "tle_line2": "2 41586   1.7491  67.7010 0004352   1.3083 305.7697  1.00268532  4983"
      },
      "geometry": {
        "type": "Point",
        "coordinates": [
          83.31011523567336,
          0.4908457900384145
        ]
      }
    }
  ]
}